OBJECT_NAME,OBJECT_ID,EPOCH,MEAN_MOTION,ECCENTRICITY,INCLINATION,RA_OF_ASC_NODE,ARG_OF_PERICENTER,MEAN_ANOMALY,EPHEMERIS_TYPE,CLASSIFICATION_TYPE,NORAD_CAT_ID,ELEMENT_SET_NO,REV_AT_EPOCH,BSTAR,MEAN_MOTION_DOT,MEAN_MOTION_DDOT
ONEWEB-0667,2023-029AH,2026-07-19T16:17:28.449600,13.20771101,.0002018,87.9184,267.9578,103.6111,256.5247,0,U,55827,999,16543,-.31863E-3,-.117E-5,0
ONEWEB-0669,2023-029AJ,2026-07-19T17:59:18.028608,13.20770017,.0001558,87.9180,267.9524,88.6367,271.4945,0,U,55828,999,16544,.18565E-3,.88E-6,0
ONEWEB-0670,2023-029AK,2026-07-19T18:58:37.477056,13.14502099,.0001718,87.8954,283.2418,108.2603,251.8714,0,U,55829,999,16371,-.4519E-3,-.155E-5,0
ONEWEB-0671,2023-029AL,2026-07-19T17:46:22.531584,13.19725444,.0001972,87.9186,298.4934,105.0556,255.0795,0,U,55830,999,16319,-.29439E-3,-.105E-5,0
ONEWEB-0672,2023-029AM,2026-07-19T17:52:02.430048,13.20770702,.0002024,87.9178,267.9473,90.8119,269.3246,0,U,55831,999,16544,.30288E-3,.136E-5,0
ONEWEB-0673,2023-029AN,2026-07-19T19:02:34.315008,13.19725227,.000195,87.9191,298.4769,104.2462,255.8887,0,U,55832,999,16320,-.59227E-4,-.11E-6,0
ONEWEB-0674,2023-029AP,2026-07-19T18:12:56.799072,13.14501282,.0001663,87.8958,283.2255,106.9682,253.1630,0,U,55833,999,16369,.6253E-3,.245E-5,0
ONEWEB-0675,2023-029AQ,2026-07-19T19:24:11.655072,13.19725265,.0002229,87.9186,298.4817,95.6510,264.4877,0,U,55834,999,16322,.1113E-3,.58E-6,0
ONEWEB-0720,2023-029AR,2026-07-19T19:12:48.530880,13.19726381,.0002198,87.9182,298.4829,107.4758,252.6615,0,U,55835,999,16314,.86834E-5,.16E-6,0
ONEWEB-0537,2023-043A,2026-07-19T02:43:11.476128,13.16594106,.00021717,87.9076,222.4296,88.3215,271.8164,0,U,56046,999,16316,.50755108E-4,.32E-6,0
ONEWEB-0538,2023-043B,2026-07-19T18:58:59.255040,13.16594041,.000234,87.9079,222.2978,92.5313,267.6085,0,U,56047,999,16326,-.13647E-3,-.39E-6,0
ONEWEB-0546,2023-043C,2026-07-19T11:23:00.386592,13.16593905,.00022095,87.9083,222.3613,74.3713,285.7661,0,U,56048,999,16321,-.16275698E-3,-.49E-6,0
ONEWEB-0547,2023-043D,2026-07-19T11:52:29.485344,13.21825228,.0002242,87.9236,237.5449,98.2243,261.9145,0,U,56049,999,16249,-.72849E-3,-.288E-5,0
ONEWEB-0548,2023-043E,2026-07-19T19:16:04.148256,13.16594772,.00016,87.9075,222.2909,95.2670,264.8643,0,U,56050,999,16325,-.46286E-4,-.5E-7,0
ONEWEB-0549,2023-043F,2026-07-19T19:00:01.732608,13.21825376,.000245,87.9228,237.4906,95.1692,264.9721,0,U,56051,999,16253,-.62168E-3,-.244E-5,0
ONEWEB-0550,2023-043G,2026-07-19T20:29:39.916608,13.21826968,.0001861,87.9230,237.4767,99.4177,260.7167,0,U,56052,999,16254,-.59534E-4,-.12E-6,0
ONEWEB-0551,2023-043H,2026-07-19T04:12:32.536512,13.15547626,.00024556,87.8975,252.8519,99.5914,260.5494,0,U,56053,999,16060,-.34683908E-3,-.118E-5,0
ONEWEB-0552,2023-043J,2026-07-19T20:22:23.047104,13.21826198,.0002126,87.9231,237.4821,101.9865,258.1508,0,U,56054,999,16254,-.12049E-4,.8E-7,0
ONEWEB-0553,2023-043K,2026-07-19T11:32:07.480896,13.16594130,.00019696,87.9078,222.3594,82.5395,277.5959,0,U,56055,999,16322,-.11546214E-3,-.31E-6,0
ONEWEB-0554,2023-043L,2026-07-19T11:13:53.298336,13.16594558,.0001542,87.9078,222.3705,95.4881,264.6426,0,U,56056,999,16320,-.13561754E-3,-.39E-6,0
ONEWEB-0555,2023-043M,2026-07-19T19:26:20.463648,13.16593762,.0002054,87.9076,222.2915,77.0690,283.0670,0,U,56057,999,16325,.21987E-4,.21E-6,0
ONEWEB-0557,2023-043N,2026-07-19T10:39:40.910400,13.16594351,.00010952,87.9082,222.3741,63.3707,296.7536,0,U,56058,999,16320,.15647235E-3,.73E-6,0
ONEWEB-0558,2023-043P,2026-07-19T20:12:42.408000,13.21826146,.0002377,87.9231,237.4794,93.5008,266.6398,0,U,56059,999,16255,-.14993E-4,.7E-7,0
ONEWEB-0559,2023-043Q,2026-07-19T09:01:44.500800,13.21824244,.00022678,87.9231,237.5680,99.3830,260.7561,0,U,56060,999,16250,.5529385E-4,.36E-6,0
ONEWEB-0566,2023-043R,2026-07-19T12:30:03.631104,13.21824249,.00023365,87.9232,237.5367,100.0932,260.0465,0,U,56061,999,16250,.21778552E-4,.22E-6,0
ONEWEB-0568,2023-043S,2026-07-19T18:22:29.627616,13.16596347,.0002057,87.9077,222.2992,84.9079,275.2287,0,U,56062,999,16326,.68626E-4,.39E-6,0
ONEWEB-0574,2023-043T,2026-07-19T19:36:23.626368,13.21825625,.0001902,87.9237,237.4829,94.2116,265.9235,0,U,56063,999,16258,-.22811E-4,.4E-7,0
ONEWEB-0575,2023-043U,2026-07-19T18:13:22.164384,13.16595809,.0001677,87.9078,222.2969,85.3535,274.7787,0,U,56064,999,16325,.8552E-4,.46E-6,0
ONEWEB-0576,2023-043V,2026-07-19T19:35:26.291328,13.16595583,.0001861,87.9081,222.2944,91.4281,268.7063,0,U,56065,999,16325,-.20639E-4,.5E-7,0
ONEWEB-0577,2023-043W,2026-07-19T10:37:23.512800,13.16595722,.00013097,87.9081,222.3663,89.4548,270.6733,0,U,56066,999,16323,.7424837E-4,.41E-6,0
