ONEWEB-0667             
1 55827U 23029AH  26200.67880150 -.00000117  00000+0 -31863-3 0  9992
2 55827  87.9184 267.9578 0002018 103.6111 256.5247 13.20771101165437
ONEWEB-0669             
1 55828U 23029AJ  26200.74951422  .00000088  00000+0  18565-3 0  9991
2 55828  87.9180 267.9524 0001558  88.6367 271.4945 13.20770017165445
ONEWEB-0670             
1 55829U 23029AK  26200.79071154 -.00000155  00000+0 -45190-3 0  9993
2 55829  87.8954 283.2418 0001718 108.2603 251.8714 13.14502099163717
ONEWEB-0671             
1 55830U 23029AL  26200.74053856 -.00000105  00000+0 -29439-3 0  9992
2 55830  87.9186 298.4934 0001972 105.0556 255.0795 13.19725444163195
ONEWEB-0672             
1 55831U 23029AM  26200.74447257  .00000136  00000+0  30288-3 0  9991
2 55831  87.9178 267.9473 0002024  90.8119 269.3246 13.20770702165449
ONEWEB-0673             
1 55832U 23029AN  26200.79345272 -.00000011  00000+0 -59227-4 0  9990
2 55832  87.9191 298.4769 0001950 104.2462 255.8887 13.19725227163203
ONEWEB-0674             
1 55833U 23029AP  26200.75899073  .00000245  00000+0  62530-3 0  9997
2 55833  87.8958 283.2255 0001663 106.9682 253.1630 13.14501282163698
ONEWEB-0675             
1 55834U 23029AQ  26200.80846823  .00000058  00000+0  11130-3 0  9991
2 55834  87.9186 298.4817 0002229  95.6510 264.4877 13.19725265163229
ONEWEB-0720             
1 55835U 23029AR  26200.80056170  .00000016  00000+0  86834-5 0  9999
2 55835  87.9182 298.4829 0002198 107.4758 252.6615 13.19726381163140
ONEWEB-0537             
1 56046U 23043A   26200.11332727  .00000032  00000+0  50755-4 0  9999
2 56046  87.9076 222.4296 0002171  88.3215 271.8164 13.16594106163167
ONEWEB-0538             
1 56047U 23043B   26200.79096360 -.00000039  00000+0 -13647-3 0  9991
2 56047  87.9079 222.2978 0002340  92.5313 267.6085 13.16594041163264
ONEWEB-0546             
1 56048U 23043C   26200.47431003 -.00000049  00000+0 -16276-3 0  9996
2 56048  87.9083 222.3613 0002209  74.3713 285.7661 13.16593905163217
ONEWEB-0547             
1 56049U 23043D   26200.49478571 -.00000288  00000+0 -72849-3 0  9993
2 56049  87.9236 237.5449 0002242  98.2243 261.9145 13.21825228162497
ONEWEB-0548             
1 56050U 23043E   26200.80282579 -.00000005  00000+0 -46286-4 0  9995
2 56050  87.9075 222.2909 0001600  95.2670 264.8643 13.16594772163251
ONEWEB-0549             
1 56051U 23043F   26200.79168672 -.00000244  00000+0 -62168-3 0  9992
2 56051  87.9228 237.4906 0002450  95.1692 264.9721 13.21825376162535
ONEWEB-0550             
1 56052U 23043G   26200.85393422 -.00000012  00000+0 -59534-4 0  9990
2 56052  87.9230 237.4767 0001861  99.4177 260.7167 13.21826968162541
ONEWEB-0551             
1 56053U 23043H   26200.17537658 -.00000118  00000+0 -34684-3 0  9992
2 56053  87.8975 252.8519 0002455  99.5914 260.5494 13.15547626160603
ONEWEB-0552             
1 56054U 23043J   26200.84887786  .00000008  00000+0 -12049-4 0  9996
2 56054  87.9231 237.4821 0002126 101.9865 258.1508 13.21826198162548
ONEWEB-0553             
1 56055U 23043K   26200.48064214 -.00000031  00000+0 -11546-3 0  9997
2 56055  87.9078 222.3594 0001969  82.5395 277.5959 13.16594130163227
ONEWEB-0554             
1 56056U 23043L   26200.46797799 -.00000039  00000+0 -13562-3 0  9995
2 56056  87.9078 222.3705 0001542  95.4881 264.6426 13.16594558163200
ONEWEB-0555             
1 56057U 23043M   26200.80995907  .00000021  00000+0  21987-4 0  9995
2 56057  87.9076 222.2915 0002054  77.0690 283.0670 13.16593762163251
ONEWEB-0557             
1 56058U 23043N   26200.44422350  .00000073  00000+0  15647-3 0  9995
2 56058  87.9082 222.3741 0001095  63.3707 296.7536 13.16594351163200
ONEWEB-0558             
1 56059U 23043P   26200.84215750  .00000007  00000+0 -14993-4 0  9996
2 56059  87.9231 237.4794 0002377  93.5008 266.6398 13.21826146162550
ONEWEB-0559             
1 56060U 23043Q   26200.37620950  .00000036  00000+0  55294-4 0  9998
2 56060  87.9231 237.5680 0002267  99.3830 260.7561 13.21824244162501
ONEWEB-0566             
1 56061U 23043R   26200.52087536  .00000022  00000+0  21779-4 0  9999
2 56061  87.9232 237.5367 0002336 100.0932 260.0465 13.21824249162506
ONEWEB-0568             
1 56062U 23043S   26200.76562069  .00000039  00000+0  68626-4 0  9995
2 56062  87.9077 222.2992 0002057  84.9079 275.2287 13.16596347163264
ONEWEB-0574             
1 56063U 23043T   26200.81694012  .00000004  00000+0 -22811-4 0  9995
2 56063  87.9237 237.4829 0001902  94.2116 265.9235 13.21825625162587
ONEWEB-0575             
1 56064U 23043U   26200.75928431  .00000046  00000+0  85520-4 0  9995
2 56064  87.9078 222.2969 0001677  85.3535 274.7787 13.16595809163250
ONEWEB-0576             
1 56065U 23043V   26200.81627652  .00000005  00000+0 -20639-4 0  9990
2 56065  87.9081 222.2944 0001861  91.4281 268.7063 13.16595583163258
ONEWEB-0577             
1 56066U 23043W   26200.44263325  .00000041  00000+0  74248-4 0  9997
2 56066  87.9081 222.3663 0001309  89.4548 270.6733 13.16595722163237
